[{"OBJECT_NAME":"FALCONSAT-10","OBJECT_ID":"2023-174AM","EPOCH":"2026-03-09T16:51:34.085376","MEAN_MOTION":15.26670596,"ECCENTRICITY":0.00089318,"INCLINATION":97.3865,"RA_OF_ASC_NODE":145.7938,"ARG_OF_PERICENTER":169.5942,"MEAN_ANOMALY":190.5483,"EPHEMERIS_TYPE":0,"CLASSIFICATION_TYPE":"U","NORAD_CAT_ID":58291,"ELEMENT_SET_NO":999,"REV_AT_EPOCH":12958,"BSTAR":0.00025968794,"MEAN_MOTION_DOT":6.748e-5,"MEAN_MOTION_DDOT":0},{"OBJECT_NAME":"STARLINK-33559","OBJECT_ID":"2024-220V","EPOCH":"2026-03-09T10:49:02.943264","MEAN_MOTION":15.27596264,"ECCENTRICITY":0.00015937,"INCLINATION":42.9965,"RA_OF_ASC_NODE":206.9707,"ARG_OF_PERICENTER":212.7647,"MEAN_ANOMALY":147.3106,"EPHEMERIS_TYPE":0,"CLASSIFICATION_TYPE":"U","NORAD_CAT_ID":62107,"ELEMENT_SET_NO":999,"REV_AT_EPOCH":7315,"BSTAR":0.00090821104,"MEAN_MOTION_DOT":0.00024827,"MEAN_MOTION_DDOT":0}]
